*******************************************************************************
Ephemeris / WWW_USER Tue Jul 30 23:14:45 2019 Pasadena, USA      / Horizons    
*******************************************************************************
Target body name: Jupiter (599)                   {source: jup341}
Center body name: Sun (10)                        {source: DE431mx}
Center-site name: BODYCENTRIC
*******************************************************************************
Start time      : A.D. 2007-Aug-01 00:00:00.0000 UT      
Stop  time      : A.D. 2019-Aug-01 00:00:00.0000 UT      
Step-size       : 1440 minutes
*******************************************************************************
Target pole/equ : IAU_JUPITER                     {West-longitude positive}
Target radii    : 71492.0 x 71492.0 x 66854.0 km  {Equator, meridian, pole}    
Center geodetic : 0.00000000,0.00000000,0.0000000 {E-lon(deg),Lat(deg),Alt(km)}
Center cylindric: 0.00000000,0.00000000,0.0000000 {E-lon(deg),Dxy(km),Dz(km)}
Center pole/equ : IAU_SUN                         {East-longitude positive}
Center radii    : 696000.0 x 696000.0 x 696000.0 k{Equator, meridian, pole}    
Target primary  : Sun
Vis. interferer : None
Rel. light bend : Sun                             {source: DE431mx}
Rel. lght bnd GM: 1.3271E+11 km^3/s^2                                          
Atmos refraction: NO (AIRLESS)
RA format       : HMS
Time format     : CAL 
EOP file        : eop.190729.p191020                                           
EOP coverage    : DATA-BASED 1962-JAN-20 TO 2019-JUL-29. PREDICTS-> 2019-OCT-19
Units conversion: 1 au= 149597870.700 km, c= 299792.458 km/s, 1 day= 86400.0 s 
Table cut-offs 1: Elevation (-90.0deg=NO ),Airmass     n.a.    , Daylight (NO )
Table cut-offs 2: Solar elongation (  0.0,180.0=NO ),Local Hour Angle( 0.0=NO )
Table cut-offs 3: RA/DEC angular rate (     0.0=NO )                           
***********************************************************************************************************
 Date__(UT)__HR:MN     R.A._(ICRF/J2000.0)_DEC  APmag  S-brt            delta      deldot    S-O-T    S-T-O
***********************************************************************************************************
$$SOE
 2012-Jun-10 00:00     03 33 27.65 +18 13 59.8  -2.41   5.31 5.00564294700424   0.4204569   0.0000   0.0026
 2012-Jun-11 00:00     03 33 49.57 +18 15 21.4  -2.41   5.31 5.00588590009895   0.4199748   0.0000   0.0026
 2012-Jun-12 00:00     03 34 11.50 +18 16 42.8  -2.40   5.31 5.00612883193299   0.4217413   0.0000   0.0026
 2012-Jun-13 00:00     03 34 33.42 +18 18 04.1  -2.40   5.31 5.00637207732156   0.4206904   0.0000   0.0026
 2012-Jun-14 00:00     03 34 55.35 +18 19 25.1  -2.40   5.31 5.00661602535198   0.4237853   0.0000   0.0026
 2012-Jun-15 00:00     03 35 17.29 +18 20 46.0  -2.40   5.31 5.00686068264459   0.4241083   0.0000   0.0026
 2012-Jun-16 00:00     03 35 39.23 +18 22 06.8  -2.40   5.31 5.00710620555792   0.4248043   0.0000   0.0026
 2012-Jun-17 00:00     03 36 01.17 +18 23 27.4  -2.40   5.31 5.00735114289764   0.4247291   0.0000   0.0026
 2012-Jun-18 00:00     03 36 23.11 +18 24 47.8  -2.40   5.31 5.00759672643040   0.4246649   0.0000   0.0026
 2012-Jun-19 00:00     03 36 45.06 +18 26 08.1  -2.40   5.31 5.00784226691724   0.4263799   0.0000   0.0026
 2012-Jun-20 00:00     03 37 07.01 +18 27 28.1  -2.40   5.31 5.00808836225449   0.4255698   0.0000   0.0026
 2012-Jun-21 00:00     03 37 28.97 +18 28 48.1  -2.40   5.31 5.00833511452937   0.4289852   0.0000   0.0026
 2012-Jun-22 00:00     03 37 50.93 +18 30 07.8  -2.40   5.31 5.00858290290684   0.4295013   0.0000   0.0026
 2012-Jun-23 00:00     03 38 12.89 +18 31 27.4  -2.40   5.31 5.00883173920152   0.4310209   0.0000   0.0026
 2012-Jun-24 00:00     03 38 34.85 +18 32 46.8  -2.40   5.31 5.00908020662375   0.4306521   0.0000   0.0026
 2012-Jun-25 00:00     03 38 56.82 +18 34 06.1  -2.40   5.31 5.00932936710244   0.4310282   0.0000   0.0026
 2012-Jun-26 00:00     03 39 18.80 +18 35 25.2  -2.40   5.31 5.00957840997371   0.4323428   0.0000   0.0026
 2012-Jun-27 00:00     03 39 40.77 +18 36 44.1  -2.40   5.31 5.00982802493584   0.4314442   0.0000   0.0026
 2012-Jun-28 00:00     03 40 02.75 +18 38 02.8  -2.40   5.31 5.01007794496921   0.4344358   0.0000   0.0026
 2012-Jun-29 00:00     03 40 24.74 +18 39 21.4  -2.40   5.31 5.01032885892155   0.4345824   0.0000   0.0026
 2012-Jun-30 00:00     03 40 46.72 +18 40 39.9  -2.40   5.31 5.01058060703145   0.4362544   0.0000   0.0026
 2012-Jul-01 00:00     03 41 08.72 +18 41 58.1  -2.40   5.31 5.01083193686684   0.4351643   0.0000   0.0026
 2012-Jul-02 00:00     03 41 30.71 +18 43 16.2  -2.40   5.31 5.01108374223824   0.4357039   0.0000   0.0026
 2012-Jul-03 00:00     03 41 52.71 +18 44 34.1  -2.40   5.31 5.01133528808776   0.4364941   0.0000   0.0026
 2012-Jul-04 00:00     03 42 14.71 +18 45 51.9  -2.40   5.31 5.01158743397990   0.4357994   0.0000   0.0026
 2012-Jul-05 00:00     03 42 36.71 +18 47 09.4  -2.40   5.31 5.01183971300051   0.4386118   0.0000   0.0026
 2012-Jul-06 00:00     03 42 58.72 +18 48 26.9  -2.40   5.31 5.01209319974296   0.4390288   0.0000   0.0026
 2012-Jul-07 00:00     03 43 20.73 +18 49 44.1  -2.40   5.31 5.01234762839890   0.4413915   0.0000   0.0026
 2012-Jul-08 00:00     03 43 42.74 +18 51 01.2  -2.40   5.31 5.01260199422723   0.4402992   0.0000   0.0026
 2012-Jul-09 00:00     03 44 04.76 +18 52 18.1  -2.40   5.31 5.01285693458075   0.4415245   0.0000   0.0026
 2012-Jul-10 00:00     03 44 26.78 +18 53 34.8  -2.40   5.31 5.01311177962690   0.4421350   0.0000   0.0026
 2012-Jul-11 00:00     03 44 48.81 +18 54 51.4  -2.40   5.31 5.01336737947687   0.4418971   0.0000   0.0026
 2012-Jul-12 00:00     03 45 10.83 +18 56 07.7  -2.40   5.31 5.01362298954034   0.4443201   0.0000   0.0026
 2012-Jul-13 00:00     03 45 32.86 +18 57 24.0  -2.40   5.31 5.01387987727816   0.4447855   0.0000   0.0026
 2012-Jul-14 00:00     03 45 54.90 +18 58 40.0  -2.40   5.31 5.01413756134496   0.4472227   0.0000   0.0026
 2012-Jul-15 00:00     03 46 16.94 +18 59 55.9  -2.40   5.31 5.01439524624941   0.4456296   0.0000   0.0026
 2012-Jul-16 00:00     03 46 38.98 +19 01 11.6  -2.40   5.31 5.01465320897698   0.4468462   0.0000   0.0026
 2012-Jul-17 00:00     03 47 01.03 +19 02 27.2  -2.40   5.31 5.01491091979769   0.4466971   0.0000   0.0026
 2012-Jul-18 00:00     03 47 23.07 +19 03 42.5  -2.40   5.31 5.01516920771198   0.4465408   0.0000   0.0026
 2012-Jul-19 00:00     03 47 45.12 +19 04 57.7  -2.40   5.31 5.01542722131429   0.4482342   0.0000   0.0026
 2012-Jul-20 00:00     03 48 07.18 +19 06 12.8  -2.40   5.31 5.01568647452265   0.4488265   0.0000   0.0026
 2012-Jul-21 00:00     03 48 29.23 +19 07 27.6  -2.40   5.31 5.01594643760961   0.4514390   0.0000   0.0026
 2012-Jul-22 00:00     03 48 51.30 +19 08 42.3  -2.40   5.31 5.01620667744588   0.4499141   0.0000   0.0026
 2012-Jul-23 00:00     03 49 13.36 +19 09 56.8  -2.40   5.31 5.01646717712480   0.4516194   0.0000   0.0026
 2012-Jul-24 00:00     03 49 35.43 +19 11 11.1  -2.40   5.31 5.01672765757351   0.4513874   0.0000   0.0026
 2012-Jul-25 00:00     03 49 57.50 +19 12 25.3  -2.40   5.31 5.01698887045304   0.4519624   0.0000   0.0026
 2012-Jul-26 00:00     03 50 19.57 +19 13 39.3  -2.40   5.31 5.01724989750303   0.4533665   0.0000   0.0026
 2012-Jul-27 00:00     03 50 41.65 +19 14 53.1  -2.40   5.31 5.01751232638100   0.4544785   0.0000   0.0026
 2012-Jul-28 00:00     03 51 03.72 +19 16 06.7  -2.39   5.31 5.01777550523733   0.4572346   0.0000   0.0026
 2012-Jul-29 00:00     03 51 25.81 +19 17 20.2  -2.39   5.31 5.01803922965163   0.4557826   0.0000   0.0026
 2012-Jul-30 00:00     03 51 47.90 +19 18 33.5  -2.39   5.31 5.01830304295238   0.4575127   0.0000   0.0026
 2012-Jul-31 00:00     03 52 09.99 +19 19 46.6  -2.39   5.31 5.01856683462570   0.4567303   0.0000   0.0026
 2012-Aug-01 00:00     03 52 32.08 +19 20 59.6  -2.39   5.31 5.01883114095708   0.4574033   0.0000   0.0026
 2012-Aug-02 00:00     03 52 54.18 +19 22 12.4  -2.39   5.31 5.01909502759051   0.4578520   0.0000   0.0026
 2012-Aug-03 00:00     03 53 16.28 +19 23 25.0  -2.39   5.31 5.01936008231151   0.4589704   0.0000   0.0026
 2012-Aug-04 00:00     03 53 38.38 +19 24 37.4  -2.39   5.31 5.01962565863967   0.4613493   0.0000   0.0026
 2012-Aug-05 00:00     03 54 00.48 +19 25 49.7  -2.39   5.31 5.01989187091799   0.4599317   0.0000   0.0026
 2012-Aug-06 00:00     03 54 22.59 +19 27 01.7  -2.39   5.32 5.02015796889135   0.4616261   0.0000   0.0026
 2012-Aug-07 00:00     03 54 44.71 +19 28 13.6  -2.39   5.32 5.02042415965113   0.4606681   0.0000   0.0026
 2012-Aug-08 00:00     03 55 06.82 +19 29 25.4  -2.39   5.32 5.02069084037901   0.4618756   0.0000   0.0026
 2012-Aug-09 00:00     03 55 28.94 +19 30 36.9  -2.39   5.32 5.02095722949909   0.4619799   0.0000   0.0026
 2012-Aug-10 00:00     03 55 51.06 +19 31 48.3  -2.39   5.32 5.02122486770150   0.4637609   0.0000   0.0026
 2012-Aug-11 00:00     03 56 13.18 +19 32 59.5  -2.39   5.32 5.02149317766269   0.4662534   0.0000   0.0026
 2012-Aug-12 00:00     03 56 35.31 +19 34 10.5  -2.39   5.32 5.02176250453973   0.4654750   0.0000   0.0026
 2012-Aug-13 00:00     03 56 57.44 +19 35 21.4  -2.39   5.32 5.02203174951219   0.4672921   0.0000   0.0026
 2012-Aug-14 00:00     03 57 19.57 +19 36 32.0  -2.39   5.32 5.02230130309653   0.4663101   0.0000   0.0026
 2012-Aug-15 00:00     03 57 41.71 +19 37 42.5  -2.39   5.32 5.02257125494206   0.4677848   0.0000   0.0026
 2012-Aug-16 00:00     03 58 03.85 +19 38 52.9  -2.39   5.32 5.02284091006228   0.4671849   0.0000   0.0026
 2012-Aug-17 00:00     03 58 25.99 +19 40 03.0  -2.39   5.32 5.02311156416646   0.4690445   0.0000   0.0026
 2012-Aug-18 00:00     03 58 48.13 +19 41 13.0  -2.39   5.32 5.02338270802900   0.4709281   0.0000   0.0026
 2012-Aug-19 00:00     03 59 10.28 +19 42 22.8  -2.39   5.32 5.02365484748652   0.4702776   0.0000   0.0026
